[{"OBJECT_NAME":"STARLINK-4076","OBJECT_ID":"2022-053M","EPOCH":"2026-03-09T12:36:54.324864","MEAN_MOTION":15.08834598,"ECCENTRICITY":0.00014802,"INCLINATION":53.2178,"RA_OF_ASC_NODE":154.8591,"ARG_OF_PERICENTER":98.2292,"MEAN_ANOMALY":261.8868,"EPHEMERIS_TYPE":0,"CLASSIFICATION_TYPE":"U","NORAD_CAT_ID":52667,"ELEMENT_SET_NO":999,"REV_AT_EPOCH":21102,"BSTAR":5.0402057e-5,"MEAN_MOTION_DOT":5.14e-6,"MEAN_MOTION_DDOT":0},{"OBJECT_NAME":"COSMOS 2535 DEB","OBJECT_ID":"2019-039H","EPOCH":"2026-03-09T01:37:49.505376","MEAN_MOTION":15.12536261,"ECCENTRICITY":0.00199509,"INCLINATION":97.5365,"RA_OF_ASC_NODE":108.6978,"ARG_OF_PERICENTER":50.248,"MEAN_ANOMALY":310.0505,"EPHEMERIS_TYPE":0,"CLASSIFICATION_TYPE":"U","NORAD_CAT_ID":44631,"ELEMENT_SET_NO":999,"REV_AT_EPOCH":34980,"BSTAR":0.00071319108,"MEAN_MOTION_DOT":0.00012434,"MEAN_MOTION_DDOT":0}]
